line1,line2,validFromUtcTime
1 00000U 00000E   26001.00000000  .00000000  00000-0  27772-4 0    01,2 00000  88.9607 165.3356 0009831 270.6102 171.7490 13.55237298    02,2026-01-01T00:00:00Z
1 00000U 00000E   26002.00000000  .00000000  00000-0  27772-4 0    02,2 00000  88.9607 165.2299 0009831 267.6998  10.6017 13.55237337    06,2026-01-02T00:00:00Z
